[{"OBJECT_NAME":"STARLINK-35347","OBJECT_ID":"2025-224AB","EPOCH":"2026-03-09T01:58:15.568032","MEAN_MOTION":15.30197663,"ECCENTRICITY":9.64e-5,"INCLINATION":53.1589,"RA_OF_ASC_NODE":13.9958,"ARG_OF_PERICENTER":95.9175,"MEAN_ANOMALY":264.1936,"EPHEMERIS_TYPE":0,"CLASSIFICATION_TYPE":"U","NORAD_CAT_ID":65907,"ELEMENT_SET_NO":999,"REV_AT_EPOCH":2476,"BSTAR":0.00050773848,"MEAN_MOTION_DOT":0.00014707,"MEAN_MOTION_DDOT":0},{"OBJECT_NAME":"CZ-6A DEB","OBJECT_ID":"2022-151DV","EPOCH":"2026-03-09T19:16:59.107296","MEAN_MOTION":15.22406517,"ECCENTRICITY":0.00445255,"INCLINATION":98.4509,"RA_OF_ASC_NODE":160.1888,"ARG_OF_PERICENTER":355.6495,"MEAN_ANOMALY":4.4345,"EPHEMERIS_TYPE":0,"CLASSIFICATION_TYPE":"U","NORAD_CAT_ID":54397,"ELEMENT_SET_NO":999,"REV_AT_EPOCH":17880,"BSTAR":0.0035436228,"MEAN_MOTION_DOT":0.00084931,"MEAN_MOTION_DDOT":0}]
